{"type":"FeatureCollection","features":[{"type":"Feature","geometry":{"type":"Point","coordinates":[2.983,48.3871]},"properties":{"t":1790904000,"src":"viirs_noaa21","frp":0.88,"conf":"nominal","conf_pct":null,"dn":"N","foyer":2}},{"type":"Feature","geometry":{"type":"Point","coordinates":[5.6797,48.7148]},"properties":{"t":1790904000,"src":"viirs_noaa21","frp":0.65,"conf":"nominal","conf_pct":null,"dn":"N","foyer":null}},{"type":"Feature","geometry":{"type":"Point","coordinates":[1.7624,48.9845]},"properties":{"t":1790904000,"src":"viirs_noaa21","frp":1.45,"conf":"nominal","conf_pct":null,"dn":"N","foyer":1}},{"type":"Feature","geometry":{"type":"Point","coordinates":[5.4601,43.4529]},"properties":{"t":1790904120,"src":"viirs_noaa21","frp":0.45,"conf":"nominal","conf_pct":null,"dn":"N","foyer":null}},{"type":"Feature","geometry":{"type":"Point","coordinates":[4.5633,48.7682]},"properties":{"t":1790906160,"src":"viirs_snpp","frp":0.81,"conf":"nominal","conf_pct":null,"dn":"N","foyer":4}},{"type":"Feature","geometry":{"type":"Point","coordinates":[1.761,48.9838]},"properties":{"t":1790906160,"src":"viirs_snpp","frp":1.89,"conf":"nominal","conf_pct":null,"dn":"N","foyer":1}},{"type":"Feature","geometry":{"type":"Point","coordinates":[3.4902,50.331]},"properties":{"t":1790906160,"src":"viirs_snpp","frp":1.24,"conf":"nominal","conf_pct":null,"dn":"N","foyer":3}},{"type":"Feature","geometry":{"type":"Point","coordinates":[3.4924,50.3377]},"properties":{"t":1790906160,"src":"viirs_snpp","frp":1.09,"conf":"nominal","conf_pct":null,"dn":"N","foyer":3}},{"type":"Feature","geometry":{"type":"Point","coordinates":[1.8964,50.9709]},"properties":{"t":1790906160,"src":"viirs_snpp","frp":0.64,"conf":"nominal","conf_pct":null,"dn":"N","foyer":7}},{"type":"Feature","geometry":{"type":"Point","coordinates":[4.8472,43.9984]},"properties":{"t":1790906280,"src":"viirs_snpp","frp":0.62,"conf":"nominal","conf_pct":null,"dn":"N","foyer":null}},{"type":"Feature","geometry":{"type":"Point","coordinates":[7.2347,47.6288]},"properties":{"t":1790906280,"src":"viirs_snpp","frp":0.68,"conf":"nominal","conf_pct":null,"dn":"N","foyer":null}},{"type":"Feature","geometry":{"type":"Point","coordinates":[7.2359,47.6289]},"properties":{"t":1790906280,"src":"viirs_snpp","frp":0.56,"conf":"nominal","conf_pct":null,"dn":"N","foyer":null}},{"type":"Feature","geometry":{"type":"Point","coordinates":[2.982,48.3877]},"properties":{"t":1790906280,"src":"viirs_snpp","frp":1.07,"conf":"nominal","conf_pct":null,"dn":"N","foyer":2}},{"type":"Feature","geometry":{"type":"Point","coordinates":[2.9852,48.3857]},"properties":{"t":1790907300,"src":"viirs_noaa20","frp":0.93,"conf":"nominal","conf_pct":null,"dn":"N","foyer":2}},{"type":"Feature","geometry":{"type":"Point","coordinates":[2.9794,48.3869]},"properties":{"t":1790907300,"src":"viirs_noaa20","frp":0.93,"conf":"nominal","conf_pct":null,"dn":"N","foyer":2}},{"type":"Feature","geometry":{"type":"Point","coordinates":[4.5647,48.7693]},"properties":{"t":1790907300,"src":"viirs_noaa20","frp":1.01,"conf":"nominal","conf_pct":null,"dn":"N","foyer":4}},{"type":"Feature","geometry":{"type":"Point","coordinates":[1.7622,48.9828]},"properties":{"t":1790907300,"src":"viirs_noaa20","frp":0.98,"conf":"nominal","conf_pct":null,"dn":"N","foyer":1}},{"type":"Feature","geometry":{"type":"Point","coordinates":[1.7567,48.9838]},"properties":{"t":1790907300,"src":"viirs_noaa20","frp":0.91,"conf":"nominal","conf_pct":null,"dn":"N","foyer":1}},{"type":"Feature","geometry":{"type":"Point","coordinates":[3.4907,50.3319]},"properties":{"t":1790907300,"src":"viirs_noaa20","frp":1.36,"conf":"nominal","conf_pct":null,"dn":"N","foyer":3}},{"type":"Feature","geometry":{"type":"Point","coordinates":[3.4939,50.3386]},"properties":{"t":1790907300,"src":"viirs_noaa20","frp":0.96,"conf":"nominal","conf_pct":null,"dn":"N","foyer":3}},{"type":"Feature","geometry":{"type":"Point","coordinates":[1.8943,50.9701]},"properties":{"t":1790907300,"src":"viirs_noaa20","frp":0.45,"conf":"nominal","conf_pct":null,"dn":"N","foyer":7}},{"type":"Feature","geometry":{"type":"Point","coordinates":[1.8958,50.9733]},"properties":{"t":1790907300,"src":"viirs_noaa20","frp":0.45,"conf":"nominal","conf_pct":null,"dn":"N","foyer":7}},{"type":"Feature","geometry":{"type":"Point","coordinates":[0.8276,48.292]},"properties":{"t":1790910000,"src":"viirs_noaa21","frp":0.96,"conf":"nominal","conf_pct":null,"dn":"N","foyer":null}},{"type":"Feature","geometry":{"type":"Point","coordinates":[1.7593,48.9819]},"properties":{"t":1790910000,"src":"viirs_noaa21","frp":1.06,"conf":"nominal","conf_pct":null,"dn":"N","foyer":1}},{"type":"Feature","geometry":{"type":"Point","coordinates":[-1.7761,46.9879]},"properties":{"t":1790934540,"src":"modis","frp":42.53,"conf":null,"conf_pct":82,"dn":"D","foyer":6}},{"type":"Feature","geometry":{"type":"Point","coordinates":[-1.7925,46.9908]},"properties":{"t":1790934540,"src":"modis","frp":9.64,"conf":null,"conf_pct":53,"dn":"D","foyer":6}},{"type":"Feature","geometry":{"type":"Point","coordinates":[-1.7875,47.0017]},"properties":{"t":1790934540,"src":"modis","frp":15.19,"conf":null,"conf_pct":67,"dn":"D","foyer":6}},{"type":"Feature","geometry":{"type":"Point","coordinates":[-0.6626,48.1105]},"properties":{"t":1790942640,"src":"viirs_noaa20","frp":1.41,"conf":"nominal","conf_pct":null,"dn":"D","foyer":null}},{"type":"Feature","geometry":{"type":"Point","coordinates":[-0.8986,44.4186]},"properties":{"t":1790945160,"src":"viirs_noaa21","frp":6.3,"conf":"nominal","conf_pct":null,"dn":"D","foyer":null}},{"type":"Feature","geometry":{"type":"Point","coordinates":[-0.6888,45.604]},"properties":{"t":1790945160,"src":"viirs_noaa21","frp":10.2,"conf":"nominal","conf_pct":null,"dn":"D","foyer":null}},{"type":"Feature","geometry":{"type":"Point","coordinates":[-0.2033,45.7348]},"properties":{"t":1790945160,"src":"viirs_noaa21","frp":2.0,"conf":"nominal","conf_pct":null,"dn":"D","foyer":null}},{"type":"Feature","geometry":{"type":"Point","coordinates":[1.1631,47.3125]},"properties":{"t":1790945160,"src":"viirs_noaa21","frp":2.9,"conf":"nominal","conf_pct":null,"dn":"D","foyer":null}},{"type":"Feature","geometry":{"type":"Point","coordinates":[-2.5791,48.1046]},"properties":{"t":1790947380,"src":"viirs_snpp","frp":6.35,"conf":"nominal","conf_pct":null,"dn":"D","foyer":5}},{"type":"Feature","geometry":{"type":"Point","coordinates":[-2.5783,48.1032]},"properties":{"t":1790948640,"src":"viirs_noaa20","frp":4.56,"conf":"nominal","conf_pct":null,"dn":"D","foyer":5}},{"type":"Feature","geometry":{"type":"Point","coordinates":[-2.584,48.1004]},"properties":{"t":1790953260,"src":"modis","frp":6.25,"conf":null,"conf_pct":56,"dn":"D","foyer":5}},{"type":"Feature","geometry":{"type":"Point","coordinates":[3.9297,48.182]},"properties":{"t":1790992680,"src":"viirs_noaa20","frp":0.32,"conf":"nominal","conf_pct":null,"dn":"N","foyer":null}},{"type":"Feature","geometry":{"type":"Point","coordinates":[2.9844,48.3855]},"properties":{"t":1790992680,"src":"viirs_noaa20","frp":0.64,"conf":"nominal","conf_pct":null,"dn":"N","foyer":2}},{"type":"Feature","geometry":{"type":"Point","coordinates":[2.9793,48.3863]},"properties":{"t":1790992680,"src":"viirs_noaa20","frp":0.64,"conf":"nominal","conf_pct":null,"dn":"N","foyer":2}},{"type":"Feature","geometry":{"type":"Point","coordinates":[6.1072,48.5635]},"properties":{"t":1790992680,"src":"viirs_noaa20","frp":1.3,"conf":"nominal","conf_pct":null,"dn":"N","foyer":null}},{"type":"Feature","geometry":{"type":"Point","coordinates":[6.1075,48.5636]},"properties":{"t":1790992680,"src":"viirs_noaa20","frp":0.89,"conf":"nominal","conf_pct":null,"dn":"N","foyer":null}},{"type":"Feature","geometry":{"type":"Point","coordinates":[5.6808,48.7159]},"properties":{"t":1790992680,"src":"viirs_noaa20","frp":0.54,"conf":"nominal","conf_pct":null,"dn":"N","foyer":null}},{"type":"Feature","geometry":{"type":"Point","coordinates":[4.5649,48.7681]},"properties":{"t":1790992680,"src":"viirs_noaa20","frp":0.42,"conf":"nominal","conf_pct":null,"dn":"N","foyer":4}},{"type":"Feature","geometry":{"type":"Point","coordinates":[1.7605,48.9818]},"properties":{"t":1790992680,"src":"viirs_noaa20","frp":2.03,"conf":"nominal","conf_pct":null,"dn":"N","foyer":1}},{"type":"Feature","geometry":{"type":"Point","coordinates":[1.7616,48.9851]},"properties":{"t":1790992680,"src":"viirs_noaa20","frp":0.84,"conf":"nominal","conf_pct":null,"dn":"N","foyer":1}},{"type":"Feature","geometry":{"type":"Point","coordinates":[3.491,50.3302]},"properties":{"t":1790992680,"src":"viirs_noaa20","frp":0.54,"conf":"nominal","conf_pct":null,"dn":"N","foyer":3}},{"type":"Feature","geometry":{"type":"Point","coordinates":[3.4935,50.3368]},"properties":{"t":1790992680,"src":"viirs_noaa20","frp":0.95,"conf":"nominal","conf_pct":null,"dn":"N","foyer":3}}]}
