{"type":"FeatureCollection","features":[{"type":"Feature","geometry":{"type":"Polygon","coordinates":[[[1.7567,48.9838],[1.7593,48.9819],[1.7605,48.9818],[1.7622,48.9828],[1.7624,48.9845],[1.7616,48.9851],[1.7567,48.9838]]]},"properties":{"id":1}},{"type":"Feature","geometry":{"type":"Polygon","coordinates":[[[2.9793,48.3863],[2.9844,48.3855],[2.9852,48.3857],[2.983,48.3871],[2.982,48.3877],[2.9794,48.3869],[2.9793,48.3863]]]},"properties":{"id":2}},{"type":"Feature","geometry":{"type":"Polygon","coordinates":[[[3.4902,50.331],[3.491,50.3302],[3.4935,50.3368],[3.4939,50.3386],[3.4924,50.3377],[3.4902,50.331]]]},"properties":{"id":3}},{"type":"Feature","geometry":{"type":"Polygon","coordinates":[[[4.5633,48.7682],[4.5649,48.7681],[4.5647,48.7693],[4.5633,48.7682]]]},"properties":{"id":4}},{"type":"Feature","geometry":{"type":"Polygon","coordinates":[[[-2.584,48.1004],[-2.5783,48.1032],[-2.5791,48.1046],[-2.584,48.1004]]]},"properties":{"id":5}},{"type":"Feature","geometry":{"type":"Polygon","coordinates":[[[-1.7925,46.9908],[-1.7761,46.9879],[-1.7875,47.0017],[-1.7925,46.9908]]]},"properties":{"id":6}},{"type":"Feature","geometry":{"type":"Polygon","coordinates":[[[1.8943,50.9701],[1.8964,50.9709],[1.8958,50.9733],[1.8943,50.9701]]]},"properties":{"id":7}}]}
