{"type":"FeatureCollection","features":[{"type":"Feature","geometry":{"type":"Point","coordinates":[1.7605,48.98339]},"properties":{"id":1,"detections":7,"detections_24h":2,"first":"2026-10-02T01:20:00Z","last":"2026-10-03T01:58:00Z","max_frp":2.03,"estimated_area_ha":42,"active":false}},{"type":"Feature","geometry":{"type":"Point","coordinates":[2.98222,48.38654]},"properties":{"id":2,"detections":6,"detections_24h":2,"first":"2026-10-02T01:20:00Z","last":"2026-10-03T01:58:00Z","max_frp":1.07,"estimated_area_ha":56,"active":false}},{"type":"Feature","geometry":{"type":"Point","coordinates":[3.49196,50.33435]},"properties":{"id":3,"detections":6,"detections_24h":2,"first":"2026-10-02T01:56:00Z","last":"2026-10-03T01:58:00Z","max_frp":1.36,"estimated_area_ha":28,"active":false}},{"type":"Feature","geometry":{"type":"Point","coordinates":[4.56433,48.76855]},"properties":{"id":4,"detections":3,"detections_24h":1,"first":"2026-10-02T01:56:00Z","last":"2026-10-03T01:58:00Z","max_frp":1.01,"estimated_area_ha":42,"active":false}},{"type":"Feature","geometry":{"type":"Point","coordinates":[-2.58049,48.10272]},"properties":{"id":5,"detections":3,"detections_24h":3,"first":"2026-10-02T13:23:00Z","last":"2026-10-02T15:01:00Z","max_frp":6.35,"estimated_area_ha":28,"active":false}},{"type":"Feature","geometry":{"type":"Point","coordinates":[-1.78537,46.99347]},"properties":{"id":6,"detections":3,"detections_24h":0,"first":"2026-10-02T09:49:00Z","last":"2026-10-02T09:49:00Z","max_frp":42.53,"estimated_area_ha":42,"active":false}},{"type":"Feature","geometry":{"type":"Point","coordinates":[1.89548,50.97143]},"properties":{"id":7,"detections":3,"detections_24h":0,"first":"2026-10-02T01:56:00Z","last":"2026-10-02T02:15:00Z","max_frp":0.64,"estimated_area_ha":14,"active":false}}]}
