{"type":"FeatureCollection","features":[{"type":"Feature","geometry":{"type":"Polygon","coordinates":[[[3.6987,44.4031],[3.6985,44.4021],[3.6963,44.4031],[3.6968,44.4038],[3.6985,44.4033],[3.6987,44.4031]]]},"properties":{"kind":"dated","date":"2026-01-02","updated":"2026-01-07","area_ha":3,"commune":"Pont de Montvert - Sud Mont Lozère","province":"Lozère"}},{"type":"Feature","geometry":{"type":"Polygon","coordinates":[[[3.9171,44.5126],[3.9174,44.5092],[3.9182,44.5075],[3.9175,44.5068],[3.9157,44.5073],[3.9176,44.5077],[3.9155,44.5136],[3.9161,44.5138],[3.917,44.5129],[3.9171,44.5126]]]},"properties":{"kind":"dated","date":"2026-01-02","updated":"2026-01-07","area_ha":6,"commune":"Prévenchères","province":"Lozère"}},{"type":"Feature","geometry":{"type":"Polygon","coordinates":[[[2.5296,45.1327],[2.5295,45.1322],[2.5253,45.1326],[2.5258,45.1332],[2.5292,45.1328],[2.5296,45.1327]]]},"properties":{"kind":"dated","date":"2026-01-03","updated":"2026-01-07","area_ha":2,"commune":"Saint-Paul-de-Salers","province":"Cantal"}},{"type":"Feature","geometry":{"type":"Polygon","coordinates":[[[3.7391,44.3791],[3.7395,44.3788],[3.739,44.3779],[3.736,44.3798],[3.7367,44.3821],[3.7382,44.3821],[3.7392,44.381],[3.7397,44.3812],[3.7393,44.3818],[3.7399,44.3819],[3.7393,44.3792],[3.7391,44.3791]]]},"properties":{"kind":"dated","date":"2026-01-04","updated":"2026-01-07","area_ha":10,"commune":"Pont de Montvert - Sud Mont Lozère","province":"Lozère"}},{"type":"Feature","geometry":{"type":"Polygon","coordinates":[[[3.5293,44.1434],[3.5294,44.1448],[3.5276,44.1449],[3.5273,44.1462],[3.5315,44.1454],[3.5354,44.1459],[3.5314,44.1434],[3.5295,44.1434],[3.5293,44.1434]]]},"properties":{"kind":"dated","date":"2026-01-05","updated":"2026-01-07","area_ha":11,"commune":"Meyrueis","province":"Lozère"}},{"type":"Feature","geometry":{"type":"Polygon","coordinates":[[[3.8643,44.5022],[3.8619,44.5013],[3.8599,44.5021],[3.8576,44.5018],[3.8578,44.5047],[3.859,44.5052],[3.8624,44.5047],[3.8649,44.5024],[3.8644,44.5022],[3.8643,44.5022]]]},"properties":{"kind":"dated","date":"2026-01-05","updated":"2026-01-07","area_ha":17,"commune":"Altier","province":"Lozère"}},{"type":"Feature","geometry":{"type":"Polygon","coordinates":[[[7.625,44.1077],[7.6263,44.1078],[7.6288,44.1052],[7.6265,44.1042],[7.6243,44.1053],[7.6248,44.1076],[7.625,44.1077]]]},"properties":{"kind":"dated","date":"2026-01-06","updated":"2026-01-09","area_ha":10,"commune":"Tende","province":"Alpes-Maritimes"}},{"type":"Feature","geometry":{"type":"Polygon","coordinates":[[[5.2385,43.5955],[5.2395,43.5948],[5.2389,43.5937],[5.2354,43.5939],[5.2337,43.5931],[5.232,43.5935],[5.2339,43.5937],[5.2347,43.5945],[5.2332,43.5954],[5.2338,43.5973],[5.2347,43.5974],[5.2375,43.5957],[5.2385,43.5955]]]},"properties":{"kind":"dated","date":"2026-01-06","updated":"2026-01-12","area_ha":14,"commune":"Lançon-Provence","province":"Bouches-du-Rhône"}},{"type":"Feature","geometry":{"type":"Polygon","coordinates":[[[3.8933,44.4785],[3.8935,44.4776],[3.8911,44.4774],[3.89,44.4787],[3.8895,44.4769],[3.8878,44.4775],[3.8891,44.4801],[3.8914,44.4804],[3.8922,44.4796],[3.8933,44.4785]]]},"properties":{"kind":"dated","date":"2026-01-07","updated":"2026-01-12","area_ha":11,"commune":"Altier","province":"Lozère"}},{"type":"Feature","geometry":{"type":"Polygon","coordinates":[[[9.4078,42.8642],[9.4079,42.8635],[9.4068,42.8635],[9.4056,42.8645],[9.4062,42.865],[9.4075,42.8644],[9.4078,42.8642]]]},"properties":{"kind":"dated","date":"2026-01-13","updated":"2026-01-28","area_ha":2,"commune":"Cagnano","province":"Haute-Corse"}},{"type":"Feature","geometry":{"type":"Polygon","coordinates":[[[-0.2861,43.0112],[-0.2862,43.0096],[-0.2877,43.0091],[-0.289,43.0093],[-0.2905,43.0106],[-0.2902,43.0112],[-0.2867,43.0115],[-0.2861,43.0112]]]},"properties":{"kind":"dated","date":"2026-01-15","updated":"2026-02-05","area_ha":7,"commune":"Louvie-Soubiron","province":"Pyrénées-Atlantiques"}},{"type":"Feature","geometry":{"type":"Polygon","coordinates":[[[7.519,44.0155],[7.5211,44.0147],[7.5202,44.0136],[7.5178,44.0143],[7.5188,44.0155],[7.519,44.0155]]]},"properties":{"kind":"dated","date":"2026-01-15","updated":"2026-01-16","area_ha":4,"commune":"Fontan","province":"Alpes-Maritimes"}},{"type":"Feature","geometry":{"type":"Polygon","coordinates":[[[6.9356,43.779],[6.936,43.7782],[6.9347,43.7785],[6.9352,43.779],[6.9356,43.779]]]},"properties":{"kind":"dated","date":"2026-01-15","updated":"2026-01-16","area_ha":1,"commune":"Cipières","province":"Alpes-Maritimes"}},{"type":"Feature","geometry":{"type":"Polygon","coordinates":[[[-0.2625,43.013],[-0.2678,43.0111],[-0.2701,43.0091],[-0.2723,43.0086],[-0.2747,43.0094],[-0.2762,43.0077],[-0.282,43.0079],[-0.2833,43.0092],[-0.2827,43.011],[-0.2775,43.012],[-0.279,43.0136],[-0.2772,43.0146],[-0.2746,43.0147],[-0.2721,43.0128],[-0.2698,43.0145],[-0.2638,43.0153],[-0.2618,43.0145],[-0.2619,43.0136],[-0.2625,43.013]]]},"properties":{"kind":"dated","date":"2026-01-15","updated":"2026-02-05","area_ha":80,"commune":"Louvie-Soubiron","province":"Pyrénées-Atlantiques"}},{"type":"Feature","geometry":{"type":"Polygon","coordinates":[[[7.3833,44.0139],[7.3835,44.0127],[7.3814,44.0128],[7.3827,44.0139],[7.3833,44.0139]]]},"properties":{"kind":"dated","date":"2026-01-15","updated":"2026-01-16","area_ha":2,"commune":"Bollène-Vésubie","province":"Alpes-Maritimes"}},{"type":"Feature","geometry":{"type":"Polygon","coordinates":[[[1.1723,42.8914],[1.1738,42.891],[1.1723,42.8913],[1.1723,42.8914]]]},"properties":{"kind":"dated","date":"2026-01-16","updated":"2026-01-19","area_ha":1,"commune":"Soueix-Rogalle","province":"Ariège"}},{"type":"Feature","geometry":{"type":"Polygon","coordinates":[[[-0.7334,43.1429],[-0.7312,43.1433],[-0.7269,43.1462],[-0.7229,43.1472],[-0.7275,43.1438],[-0.7269,43.1414],[-0.7214,43.1404],[-0.718,43.1381],[-0.7178,43.1373],[-0.7187,43.1367],[-0.723,43.1387],[-0.727,43.1387],[-0.7281,43.1423],[-0.7311,43.1405],[-0.7326,43.1425],[-0.7333,43.1418],[-0.7335,43.1428],[-0.7334,43.1429]]]},"properties":{"kind":"dated","date":"2026-01-26","updated":"2026-03-13","area_ha":40,"commune":"Aramits","province":"Pyrénées-Atlantiques"}},{"type":"Feature","geometry":{"type":"Polygon","coordinates":[[[2.5296,42.4379],[2.5301,42.437],[2.5296,42.4365],[2.5263,42.4356],[2.5249,42.436],[2.5258,42.4374],[2.5292,42.4381],[2.5296,42.4379]]]},"properties":{"kind":"dated","date":"2026-02-03","updated":"2026-02-24","area_ha":8,"commune":"Tech","province":"Pyrénées-Orientales"}},{"type":"Feature","geometry":{"type":"Polygon","coordinates":[[[2.4637,42.6668],[2.4656,42.6634],[2.4617,42.6621],[2.4606,42.6625],[2.461,42.6654],[2.4592,42.6651],[2.4593,42.666],[2.4622,42.6684],[2.4633,42.6674],[2.4637,42.6668]]]},"properties":{"kind":"dated","date":"2026-02-04","updated":"2026-02-23","area_ha":20,"commune":"Eus","province":"Pyrénées-Orientales"}},{"type":"Feature","geometry":{"type":"Polygon","coordinates":[[[-1.1709,43.06],[-1.1707,43.0592],[-1.1697,43.0593],[-1.1708,43.0619],[-1.1728,43.0609],[-1.1709,43.0626],[-1.1726,43.0637],[-1.1729,43.0644],[-1.1723,43.0652],[-1.1706,43.0646],[-1.1706,43.0631],[-1.1697,43.0614],[-1.169,43.0617],[-1.1693,43.0633],[-1.1686,43.0635],[-1.163,43.0598],[-1.1643,43.0578],[-1.164,43.0563],[-1.1681,43.0565],[-1.1695,43.0559],[-1.1663,43.054],[-1.1641,43.0544],[-1.164,43.0537],[-1.168,43.0539],[-1.1708,43.0556],[-1.1718,43.0578],[-1.171,43.0598],[-1.1709,43.06]],[[-1.1655,43.0585],[-1.166,43.059],[-1.1676,43.0587],[-1.1679,43.0575],[-1.1655,43.0572],[-1.166,43.0579],[-1.1655,43.0585]],[[-1.1658,43.0605],[-1.1662,43.0609],[-1.1665,43.06],[-1.1687,43.0596],[-1.166,43.0598],[-1.1658,43.0605]]]},"properties":{"kind":"dated","date":"2026-02-13","updated":"2026-03-23","area_ha":43,"commune":"Estérençuby","province":"Pyrénées-Atlantiques"}},{"type":"Feature","geometry":{"type":"Polygon","coordinates":[[[7.5746,44.0116],[7.5759,44.0106],[7.5742,44.0077],[7.5727,44.0074],[7.5716,44.008],[7.5715,44.0092],[7.5701,44.0092],[7.5719,44.0118],[7.5745,44.0126],[7.5745,44.0117],[7.5746,44.0116]]]},"properties":{"kind":"dated","date":"2026-02-17","updated":"2026-02-18","area_ha":15,"commune":"Fontan","province":"Alpes-Maritimes"}},{"type":"Feature","geometry":{"type":"Polygon","coordinates":[[[9.4397,42.4725],[9.4395,42.4713],[9.4361,42.4663],[9.4328,42.4641],[9.4298,42.4635],[9.4302,42.4652],[9.4328,42.4684],[9.4323,42.4691],[9.4329,42.4699],[9.4398,42.474],[9.44,42.4731],[9.4397,42.4725]]]},"properties":{"kind":"dated","date":"2026-02-20","updated":"2026-02-23","area_ha":38,"commune":"Loreto-di-Casinca","province":"Haute-Corse"}},{"type":"Feature","geometry":{"type":"Polygon","coordinates":[[[3.8395,44.3507],[3.8389,44.3504],[3.8404,44.3502],[3.8395,44.3498],[3.8383,44.3477],[3.8388,44.3461],[3.838,44.3458],[3.8376,44.3494],[3.8379,44.3502],[3.8387,44.3503],[3.8385,44.351],[3.8395,44.3508],[3.8395,44.3507]]]},"properties":{"kind":"dated","date":"2026-02-22","updated":"2026-02-26","area_ha":6,"commune":"Vialas","province":"Lozère"}},{"type":"Feature","geometry":{"type":"Polygon","coordinates":[[[2.3843,42.6929],[2.3851,42.6928],[2.3847,42.6936],[2.3851,42.6932],[2.3853,42.6938],[2.3857,42.6934],[2.3867,42.6939],[2.3866,42.6931],[2.3887,42.6941],[2.3891,42.6937],[2.3896,42.6947],[2.3911,42.6951],[2.3917,42.696],[2.3932,42.6949],[2.389,42.6928],[2.3848,42.6921],[2.3843,42.6929]]]},"properties":{"kind":"dated","date":"2026-02-22","updated":"2026-02-24","area_ha":9,"commune":"Sournia","province":"Pyrénées-Orientales"}},{"type":"Feature","geometry":{"type":"Polygon","coordinates":[[[9.3232,42.489],[9.3223,42.4885],[9.3223,42.4892],[9.3231,42.4891],[9.3232,42.489]]]},"properties":{"kind":"dated","date":"2026-02-22","updated":"2026-02-25","area_ha":0,"commune":"Bisinchi","province":"Haute-Corse"}},{"type":"Feature","geometry":{"type":"Polygon","coordinates":[[[1.8103,42.779],[1.8118,42.7774],[1.8116,42.7765],[1.8077,42.7766],[1.8059,42.7749],[1.8034,42.7773],[1.8026,42.7774],[1.8019,42.7765],[1.8006,42.7767],[1.799,42.7784],[1.7962,42.7785],[1.7937,42.7807],[1.7959,42.7808],[1.7975,42.7824],[1.8046,42.7854],[1.8061,42.7848],[1.807,42.7821],[1.8088,42.7812],[1.81,42.7794],[1.8103,42.779]]]},"properties":{"kind":"dated","date":"2026-02-23","updated":"2026-02-26","area_ha":86,"commune":"Caussou","province":"Ariège"}},{"type":"Feature","geometry":{"type":"Polygon","coordinates":[[[6.1642,44.305],[6.1647,44.3046],[6.1638,44.3043],[6.1625,44.3054],[6.1639,44.3052],[6.1642,44.305]]]},"properties":{"kind":"dated","date":"2026-02-23","updated":"2026-03-06","area_ha":1,"commune":"Bayons","province":"Alpes-de-Haute-Provence"}},{"type":"Feature","geometry":{"type":"Polygon","coordinates":[[[-0.4123,44.254],[-0.4062,44.2476],[-0.406,44.2434],[-0.4021,44.2434],[-0.3967,44.2365],[-0.3966,44.2353],[-0.4071,44.2345],[-0.4084,44.2352],[-0.4086,44.2365],[-0.4093,44.2369],[-0.4115,44.2364],[-0.4124,44.2337],[-0.425,44.2325],[-0.4274,44.2331],[-0.4291,44.2363],[-0.4325,44.2486],[-0.4322,44.2497],[-0.4214,44.255],[-0.4201,44.2551],[-0.4172,44.2535],[-0.413,44.2538],[-0.4123,44.254]]]},"properties":{"kind":"dated","date":"2026-02-23","updated":"2026-03-16","area_ha":472,"commune":"Callen","province":"Landes"}},{"type":"Feature","geometry":{"type":"Polygon","coordinates":[[[-0.94,42.9921],[-0.9445,42.9905],[-0.9496,42.9902],[-0.9533,42.9889],[-0.9591,42.9883],[-0.9608,42.989],[-0.9634,42.9915],[-0.966,42.9926],[-0.9663,42.993],[-0.965,42.9936],[-0.9655,42.9942],[-0.9671,42.9949],[-0.9675,42.9944],[-0.9667,42.9939],[-0.9681,42.9939],[-0.9688,42.9943],[-0.9686,42.9955],[-0.973,42.9958],[-0.9743,42.997],[-0.9769,42.9973],[-0.9758,42.998],[-0.9717,42.9984],[-0.9702,42.9977],[-0.9681,42.9981],[-0.9665,42.997],[-0.9636,42.9967],[-0.963,42.9941],[-0.9609,42.9956],[-0.9626,42.9973],[-0.9622,42.9987],[-0.9573,42.9972],[-0.9477,42.9963],[-0.9431,42.9969],[-0.9389,42.9993],[-0.9348,43.0006],[-0.9346,42.999],[-0.9337,42.9979],[-0.9309,42.9977],[-0.9313,42.9965],[-0.9352,42.9923],[-0.9393,42.9922],[-0.94,42.9921]]]},"properties":{"kind":"dated","date":"2026-02-23","updated":"2026-02-24","area_ha":229,"commune":"Larrau","province":"Pyrénées-Atlantiques"}},{"type":"Feature","geometry":{"type":"Polygon","coordinates":[[[-0.9227,42.9872],[-0.9239,42.9845],[-0.9211,42.9813],[-0.9193,42.976],[-0.9195,42.9751],[-0.9228,42.9766],[-0.9279,42.9836],[-0.9279,42.9844],[-0.9256,42.9859],[-0.9247,42.9881],[-0.9233,42.9887],[-0.9227,42.9876],[-0.9227,42.9872]]]},"properties":{"kind":"dated","date":"2026-02-23","updated":"2026-03-23","area_ha":45,"commune":"Larrau","province":"Pyrénées-Atlantiques"}},{"type":"Feature","geometry":{"type":"Polygon","coordinates":[[[2.5143,42.4298],[2.515,42.4284],[2.5117,42.43],[2.5111,42.4315],[2.5137,42.4299],[2.5143,42.4298]]]},"properties":{"kind":"dated","date":"2026-02-23","updated":"2026-02-26","area_ha":4,"commune":"Prats-de-Mollo-la-Preste","province":"Pyrénées-Orientales"}},{"type":"Feature","geometry":{"type":"Polygon","coordinates":[[[3.6361,44.2117],[3.6358,44.2108],[3.6337,44.211],[3.6339,44.212],[3.6325,44.2128],[3.6319,44.2147],[3.6329,44.2151],[3.6362,44.2123],[3.6361,44.2117]]]},"properties":{"kind":"dated","date":"2026-02-23","updated":"2026-03-13","area_ha":8,"commune":"Pompidou","province":"Lozère"}},{"type":"Feature","geometry":{"type":"Polygon","coordinates":[[[1.6696,42.7862],[1.6674,42.7857],[1.6649,42.7838],[1.6631,42.7846],[1.6569,42.7848],[1.6555,42.7857],[1.6593,42.7869],[1.664,42.7874],[1.6662,42.7867],[1.6682,42.7875],[1.6697,42.7865],[1.6696,42.7862]]]},"properties":{"kind":"dated","date":"2026-02-23","updated":"2026-02-26","area_ha":26,"commune":"Larcat","province":"Ariège"}},{"type":"Feature","geometry":{"type":"Polygon","coordinates":[[[3.7284,44.3979],[3.7284,44.3965],[3.7242,44.3948],[3.7223,44.3965],[3.7232,44.3976],[3.7282,44.3982],[3.7284,44.3979]]]},"properties":{"kind":"dated","date":"2026-02-23","updated":"2026-02-26","area_ha":12,"commune":"Pont de Montvert - Sud Mont Lozère","province":"Lozère"}},{"type":"Feature","geometry":{"type":"Polygon","coordinates":[[[6.2673,44.29],[6.2677,44.2889],[6.2666,44.2875],[6.2675,44.2866],[6.2664,44.2846],[6.2646,44.2847],[6.265,44.2864],[6.263,44.2867],[6.2628,44.2886],[6.262,44.2895],[6.2616,44.2882],[6.2603,44.2876],[6.2597,44.2862],[6.258,44.2867],[6.2584,44.288],[6.2579,44.2891],[6.2598,44.2906],[6.2668,44.2901],[6.2673,44.29]]]},"properties":{"kind":"dated","date":"2026-02-23","updated":"2026-03-04","area_ha":30,"commune":"Barles","province":"Alpes-de-Haute-Provence"}},{"type":"Feature","geometry":{"type":"Polygon","coordinates":[[[-0.3737,42.9994],[-0.3772,42.9976],[-0.38,42.997],[-0.3848,42.9984],[-0.3867,42.9979],[-0.3891,42.9995],[-0.389,43.0009],[-0.3922,42.9994],[-0.3927,42.9966],[-0.3993,42.9954],[-0.401,42.9957],[-0.4028,42.9973],[-0.4052,42.9983],[-0.406,42.9999],[-0.4119,43.0015],[-0.4129,43.0031],[-0.4115,43.0062],[-0.4117,43.0075],[-0.4109,43.0078],[-0.4094,43.0065],[-0.4083,43.0067],[-0.4065,43.0088],[-0.4074,43.0109],[-0.4066,43.0113],[-0.3981,43.0084],[-0.3939,43.0058],[-0.3894,43.0059],[-0.3799,43.0022],[-0.3783,43.0025],[-0.3793,43.0042],[-0.3768,43.0054],[-0.3657,43.0082],[-0.3638,43.0079],[-0.3625,43.0087],[-0.3576,43.0065],[-0.3565,43.0052],[-0.3565,43.004],[-0.3625,43.0032],[-0.368,42.9998],[-0.3706,42.999],[-0.3712,42.9981],[-0.373,42.9981],[-0.3734,42.9993],[-0.3737,42.9994]]]},"properties":{"kind":"dated","date":"2026-02-23","updated":"2026-03-04","area_ha":387,"commune":"Louvie-Soubiron","province":"Pyrénées-Atlantiques"}},{"type":"Feature","geometry":{"type":"Polygon","coordinates":[[[3.8988,44.5415],[3.8987,44.54],[3.8967,44.5405],[3.8911,44.5367],[3.8888,44.5387],[3.8888,44.5397],[3.8923,44.5423],[3.8935,44.5408],[3.896,44.5423],[3.8986,44.5419],[3.8988,44.5415]]]},"properties":{"kind":"dated","date":"2026-02-23","updated":"2026-02-26","area_ha":25,"commune":"Prévenchères","province":"Lozère"}},{"type":"Feature","geometry":{"type":"Polygon","coordinates":[[[6.1709,44.3026],[6.1716,44.3021],[6.1712,44.3012],[6.1722,44.3016],[6.1733,44.3008],[6.173,44.3],[6.1709,44.3007],[6.1702,44.3016],[6.1706,44.302],[6.1692,44.3019],[6.1693,44.3012],[6.1688,44.3011],[6.167,44.3022],[6.1681,44.3033],[6.1703,44.3026],[6.1709,44.3026]]]},"properties":{"kind":"dated","date":"2026-02-23","updated":"2026-03-06","area_ha":7,"commune":"Bayons","province":"Alpes-de-Haute-Provence"}},{"type":"Feature","geometry":{"type":"Polygon","coordinates":[[[3.6941,44.2483],[3.6959,44.2467],[3.6988,44.2471],[3.7005,44.2445],[3.7024,44.2444],[3.7043,44.2452],[3.7051,44.2431],[3.7027,44.2416],[3.7017,44.2428],[3.6991,44.2435],[3.6981,44.2454],[3.6971,44.246],[3.6961,44.2454],[3.6959,44.2437],[3.6972,44.2426],[3.6962,44.2422],[3.6928,44.2426],[3.6923,44.2432],[3.6932,44.2442],[3.6916,44.2497],[3.6935,44.2489],[3.6941,44.2483]]]},"properties":{"kind":"dated","date":"2026-02-23","updated":"2026-03-13","area_ha":35,"commune":"Barre-des-Cévennes","province":"Lozère"}},{"type":"Feature","geometry":{"type":"Polygon","coordinates":[[[4.3673,44.7288],[4.3655,44.7262],[4.3656,44.7285],[4.365,44.7298],[4.3668,44.7299],[4.3672,44.7289],[4.3673,44.7288]]]},"properties":{"kind":"dated","date":"2026-02-23","updated":"2026-03-13","area_ha":4,"commune":"Antraigues-sur-Volane","province":"Ardèche"}},{"type":"Feature","geometry":{"type":"Polygon","coordinates":[[[-0.4352,43.0519],[-0.4338,43.0517],[-0.4321,43.0498],[-0.4359,43.048],[-0.4366,43.0481],[-0.4366,43.0491],[-0.4378,43.0495],[-0.4404,43.0487],[-0.4394,43.0507],[-0.441,43.0546],[-0.4388,43.0547],[-0.4355,43.052],[-0.4352,43.0519]]]},"properties":{"kind":"dated","date":"2026-02-25","updated":"2026-03-13","area_ha":29,"commune":"Bielle","province":"Pyrénées-Atlantiques"}},{"type":"Feature","geometry":{"type":"Polygon","coordinates":[[[-1.3824,43.0341],[-1.3859,43.0349],[-1.3832,43.0359],[-1.3784,43.0338],[-1.3781,43.0344],[-1.3804,43.0362],[-1.3793,43.0363],[-1.3791,43.037],[-1.3773,43.037],[-1.3727,43.0337],[-1.3677,43.0323],[-1.3691,43.0314],[-1.3737,43.0323],[-1.3732,43.0335],[-1.3747,43.0336],[-1.3755,43.0327],[-1.3819,43.034],[-1.3824,43.0341]]]},"properties":{"kind":"dated","date":"2026-02-25","updated":"2026-03-04","area_ha":29,"commune":"Urepel","province":"Pyrénées-Atlantiques"}},{"type":"Feature","geometry":{"type":"Polygon","coordinates":[[[-0.9564,43.1621],[-0.9559,43.1616],[-0.956,43.1597],[-0.9557,43.1609],[-0.9553,43.1605],[-0.9554,43.1583],[-0.955,43.1578],[-0.9542,43.1583],[-0.9542,43.1574],[-0.9503,43.1574],[-0.9505,43.1578],[-0.9491,43.1581],[-0.9485,43.159],[-0.9481,43.1583],[-0.9487,43.1577],[-0.948,43.1573],[-0.946,43.1576],[-0.946,43.1567],[-0.9443,43.1572],[-0.9431,43.1565],[-0.9461,43.1559],[-0.9556,43.1572],[-0.9556,43.158],[-0.9569,43.158],[-0.9568,43.1612],[-0.958,43.1621],[-0.9574,43.1627],[-0.9565,43.1623],[-0.9564,43.1621]]]},"properties":{"kind":"dated","date":"2026-03-17","updated":"2026-03-24","area_ha":18,"commune":"Aussurucq","province":"Pyrénées-Atlantiques"}},{"type":"Feature","geometry":{"type":"Polygon","coordinates":[[[4.9222,43.4906],[4.9168,43.4895],[4.9137,43.4941],[4.9173,43.4989],[4.9165,43.5014],[4.9182,43.5069],[4.9214,43.5097],[4.921,43.5141],[4.9256,43.5172],[4.9302,43.5141],[4.9302,43.5103],[4.9271,43.5075],[4.9324,43.5002],[4.9293,43.4956],[4.9229,43.4967],[4.9237,43.4941],[4.9222,43.4906]]]},"properties":{"kind":"nrt"}},{"type":"Feature","geometry":{"type":"Polygon","coordinates":[[[4.8245,43.4941],[4.8207,43.4941],[4.8177,43.4983],[4.8118,43.5002],[4.8103,43.5037],[4.8059,43.505],[4.8045,43.5085],[4.8059,43.512],[4.8095,43.5135],[4.8135,43.5113],[4.8183,43.5141],[4.8219,43.5127],[4.8261,43.5077],[4.8253,43.5028],[4.8276,43.4988],[4.8245,43.4941]]]},"properties":{"kind":"nrt"}},{"type":"Feature","geometry":{"type":"Polygon","coordinates":[[[4.8826,43.4956],[4.8772,43.4945],[4.8745,43.4972],[4.8747,43.5013],[4.8702,43.5112],[4.8733,43.5158],[4.8833,43.5144],[4.886,43.5117],[4.886,43.5079],[4.8825,43.5028],[4.8841,43.4991],[4.8826,43.4956]]]},"properties":{"kind":"nrt"}},{"type":"Feature","geometry":{"type":"Polygon","coordinates":[[[4.8157,43.5011],[4.8103,43.5022],[4.8061,43.509],[4.8098,43.5168],[4.8133,43.5183],[4.8179,43.5152],[4.8175,43.5108],[4.8196,43.5069],[4.8157,43.5011]]]},"properties":{"kind":"nrt"}},{"type":"Feature","geometry":{"type":"Polygon","coordinates":[[[3.5406,43.5046],[3.5352,43.5036],[3.5324,43.5069],[3.5282,43.5082],[3.5268,43.5118],[3.5282,43.5153],[3.5345,43.5188],[3.5399,43.5177],[3.5421,43.5082],[3.5406,43.5046]]]},"properties":{"kind":"nrt"}},{"type":"Feature","geometry":{"type":"Polygon","coordinates":[[[4.8115,43.5055],[4.808,43.504],[4.7992,43.5065],[4.7978,43.51],[4.8005,43.5169],[4.804,43.5184],[4.8127,43.516],[4.8142,43.5124],[4.8115,43.5055]]]},"properties":{"kind":"nrt"}},{"type":"Feature","geometry":{"type":"Polygon","coordinates":[[[4.9046,43.5085],[4.8992,43.5074],[4.8934,43.512],[4.8901,43.5121],[4.8874,43.5148],[4.8874,43.5186],[4.892,43.5217],[4.8958,43.5199],[4.9002,43.5203],[4.9057,43.5139],[4.9046,43.5085]]]},"properties":{"kind":"nrt"}},{"type":"Feature","geometry":{"type":"Polygon","coordinates":[[[3.3909,43.51],[3.3854,43.509],[3.3817,43.5139],[3.3783,43.5153],[3.3769,43.5188],[3.3783,43.5224],[3.3867,43.524],[3.3902,43.5226],[3.3924,43.5136],[3.3909,43.51]]]},"properties":{"kind":"nrt"}},{"type":"Feature","geometry":{"type":"Polygon","coordinates":[[[5.8676,43.5102],[5.8622,43.5091],[5.8595,43.5118],[5.8542,43.5131],[5.8528,43.5166],[5.8552,43.5223],[5.8633,43.5239],[5.8668,43.5225],[5.8691,43.5137],[5.8676,43.5102]]]},"properties":{"kind":"nrt"}},{"type":"Feature","geometry":{"type":"Polygon","coordinates":[[[4.8972,43.5106],[4.8937,43.5091],[4.8902,43.5106],[4.8847,43.5191],[4.8858,43.5245],[4.8912,43.5256],[4.8952,43.5226],[4.8987,43.5141],[4.8972,43.5106]]]},"properties":{"kind":"nrt"}},{"type":"Feature","geometry":{"type":"Polygon","coordinates":[[[3.6365,43.5165],[3.6311,43.5154],[3.628,43.52],[3.6297,43.5237],[3.6224,43.5233],[3.6197,43.526],[3.6197,43.5299],[3.6264,43.5366],[3.6309,43.5366],[3.6336,43.5339],[3.6342,43.5286],[3.6325,43.5249],[3.6376,43.5219],[3.6365,43.5165]]]},"properties":{"kind":"nrt"}},{"type":"Feature","geometry":{"type":"Polygon","coordinates":[[[4.8025,43.5172],[4.7929,43.5174],[4.7897,43.5214],[4.79,43.5257],[4.7865,43.5243],[4.783,43.5257],[4.7803,43.5344],[4.7815,43.5407],[4.787,43.5417],[4.7897,43.539],[4.7903,43.5353],[4.7929,43.5362],[4.7964,43.5347],[4.7984,43.5299],[4.7974,43.5271],[4.8025,43.5264],[4.8052,43.5237],[4.8052,43.5199],[4.8025,43.5172]]]},"properties":{"kind":"nrt"}},{"type":"Feature","geometry":{"type":"Polygon","coordinates":[[[3.5875,43.5225],[3.5821,43.5214],[3.5794,43.5241],[3.5803,43.5293],[3.5776,43.532],[3.5764,43.5374],[3.5795,43.542],[3.5834,43.542],[3.5922,43.5365],[3.593,43.5291],[3.589,43.5261],[3.5875,43.5225]]]},"properties":{"kind":"nrt"}},{"type":"Feature","geometry":{"type":"Polygon","coordinates":[[[3.5868,43.5286],[3.5799,43.5306],[3.5768,43.5352],[3.5815,43.5441],[3.5851,43.5455],[3.592,43.5436],[3.5951,43.539],[3.5904,43.5301],[3.5868,43.5286]]]},"properties":{"kind":"nrt"}},{"type":"Feature","geometry":{"type":"Polygon","coordinates":[[[4.8429,43.5288],[4.8374,43.5278],[4.8343,43.5324],[4.8394,43.5401],[4.8384,43.5455],[4.843,43.5486],[4.8473,43.5461],[4.8511,43.5461],[4.8542,43.5415],[4.8527,43.538],[4.8476,43.5368],[4.8429,43.5288]]]},"properties":{"kind":"nrt"}},{"type":"Feature","geometry":{"type":"Polygon","coordinates":[[[3.6262,43.5321],[3.6224,43.5321],[3.6193,43.5367],[3.612,43.5382],[3.6093,43.5409],[3.6103,43.5464],[3.6139,43.5478],[3.6165,43.547],[3.6207,43.5535],[3.6363,43.5511],[3.6436,43.5435],[3.6422,43.536],[3.6395,43.5333],[3.635,43.5338],[3.6303,43.5305],[3.6262,43.5321]]]},"properties":{"kind":"nrt"}},{"type":"Feature","geometry":{"type":"Polygon","coordinates":[[[4.7112,43.5336],[4.7077,43.5321],[4.7041,43.5336],[4.7005,43.5402],[4.7026,43.5445],[4.7062,43.5459],[4.7109,43.5444],[4.7127,43.5371],[4.7112,43.5336]]]},"properties":{"kind":"nrt"}},{"type":"Feature","geometry":{"type":"Polygon","coordinates":[[[4.7714,43.5349],[4.766,43.5338],[4.7601,43.5386],[4.7601,43.5424],[4.7658,43.5494],[4.7697,43.5494],[4.7762,43.5425],[4.7762,43.5387],[4.7714,43.5349]]]},"properties":{"kind":"nrt"}},{"type":"Feature","geometry":{"type":"Polygon","coordinates":[[[4.7642,43.5366],[4.7579,43.5407],[4.7607,43.552],[4.7643,43.5534],[4.7695,43.5522],[4.7727,43.5535],[4.7789,43.5515],[4.78,43.5461],[4.7773,43.5434],[4.7762,43.5381],[4.7726,43.5366],[4.7685,43.539],[4.7642,43.5366]]]},"properties":{"kind":"nrt"}},{"type":"Feature","geometry":{"type":"Polygon","coordinates":[[[5.8027,43.54],[5.8036,43.5427],[5.8015,43.5443],[5.7971,43.5439],[5.7944,43.5465],[5.7899,43.5436],[5.7864,43.5451],[5.7849,43.5486],[5.7872,43.5527],[5.7833,43.5569],[5.7833,43.5607],[5.786,43.5634],[5.7954,43.5637],[5.7984,43.5588],[5.8015,43.557],[5.8029,43.564],[5.8073,43.5653],[5.81,43.5681],[5.8226,43.5716],[5.8314,43.5671],[5.8329,43.5636],[5.8317,43.5603],[5.8345,43.5619],[5.8346,43.5652],[5.8373,43.5679],[5.8412,43.5679],[5.8466,43.5642],[5.8485,43.5571],[5.8463,43.5531],[5.8495,43.5551],[5.8533,43.5551],[5.856,43.5524],[5.8567,43.5479],[5.862,43.5546],[5.8663,43.5573],[5.8777,43.5563],[5.8815,43.5543],[5.8844,43.5578],[5.8882,43.5578],[5.8942,43.5499],[5.8942,43.5462],[5.8984,43.5464],[5.9015,43.5418],[5.9,43.5383],[5.8911,43.5334],[5.8898,43.5288],[5.8863,43.5273],[5.8828,43.5288],[5.8814,43.533],[5.879,43.5323],[5.8751,43.5339],[5.8736,43.5374],[5.8758,43.5415],[5.8726,43.5437],[5.8694,43.5394],[5.8708,43.5337],[5.8681,43.531],[5.858,43.5327],[5.8558,43.5346],[5.8536,43.5327],[5.8445,43.5316],[5.8418,43.5343],[5.8424,43.5391],[5.8389,43.5419],[5.8401,43.5503],[5.8419,43.5524],[5.8395,43.5543],[5.8355,43.552],[5.8316,43.5535],[5.8333,43.5405],[5.8306,43.5378],[5.8262,43.5372],[5.8268,43.5325],[5.8241,43.5298],[5.8203,43.5298],[5.8176,43.5325],[5.8185,43.5388],[5.8146,43.5367],[5.812,43.5376],[5.8077,43.535],[5.8042,43.5365],[5.8027,43.54]],[[5.8556,43.5402],[5.8558,43.54],[5.8561,43.5405],[5.8556,43.5402]],[[5.8475,43.541],[5.8478,43.5409],[5.8476,43.5412],[5.8475,43.541]],[[5.8828,43.5497],[5.8818,43.5487],[5.884,43.5489],[5.8828,43.5497]]]},"properties":{"kind":"nrt"}},{"type":"Feature","geometry":{"type":"Polygon","coordinates":[[[4.9319,43.5447],[4.9281,43.5447],[4.9254,43.5474],[4.9268,43.5552],[4.9233,43.558],[4.9233,43.5618],[4.9279,43.5649],[4.9315,43.5635],[4.9329,43.5601],[4.935,43.5654],[4.9404,43.5665],[4.9435,43.5619],[4.9422,43.5566],[4.9395,43.5539],[4.9357,43.5539],[4.9346,43.5474],[4.9319,43.5447]],[[4.9328,43.5572],[4.9326,43.5584],[4.9321,43.5574],[4.9328,43.5572]]]},"properties":{"kind":"nrt"}},{"type":"Feature","geometry":{"type":"Polygon","coordinates":[[[3.5089,43.5476],[3.5043,43.5507],[3.4985,43.5514],[3.497,43.555],[3.4985,43.5585],[3.505,43.5607],[3.5096,43.5577],[3.512,43.5584],[3.5156,43.5569],[3.517,43.5534],[3.5156,43.5499],[3.5089,43.5476]]]},"properties":{"kind":"nrt"}},{"type":"Feature","geometry":{"type":"Polygon","coordinates":[[[3.382,43.5477],[3.3785,43.5462],[3.3685,43.5484],[3.3668,43.5523],[3.3694,43.5592],[3.3748,43.5603],[3.3777,43.5565],[3.3818,43.5552],[3.3835,43.5512],[3.382,43.5477]]]},"properties":{"kind":"nrt"}},{"type":"Feature","geometry":{"type":"Polygon","coordinates":[[[5.1468,43.5492],[5.1437,43.5538],[5.1455,43.5591],[5.1404,43.561],[5.1347,43.5597],[5.132,43.5624],[5.132,43.5662],[5.1367,43.5693],[5.1406,43.5671],[5.1462,43.5685],[5.149,43.5717],[5.1464,43.5821],[5.1479,43.5856],[5.1514,43.587],[5.1587,43.5867],[5.1636,43.5788],[5.1635,43.5748],[5.1672,43.5719],[5.1734,43.5702],[5.1745,43.5647],[5.1691,43.5568],[5.165,43.5555],[5.1583,43.5491],[5.1525,43.5507],[5.1468,43.5492]]]},"properties":{"kind":"nrt"}},{"type":"Feature","geometry":{"type":"Polygon","coordinates":[[[4.9216,43.5511],[4.918,43.5497],[4.9145,43.5511],[4.913,43.5547],[4.9141,43.5608],[4.9168,43.5635],[4.92,43.5636],[4.922,43.5703],[4.9274,43.5714],[4.9347,43.564],[4.9347,43.5602],[4.932,43.5575],[4.9236,43.5578],[4.9216,43.5511]]]},"properties":{"kind":"nrt"}},{"type":"Feature","geometry":{"type":"MultiPolygon","coordinates":[[[[0.0591,42.993],[0.0576,42.9965],[0.0581,43.0035],[0.0618,43.0067],[0.067,43.0058],[0.069,43.007],[0.0688,43.0111],[0.0715,43.0138],[0.0769,43.0127],[0.0783,43.0084],[0.0811,43.0082],[0.0838,43.0055],[0.0838,43.0017],[0.0811,42.999],[0.0755,43.0002],[0.0719,42.9974],[0.0686,42.9973],[0.0672,42.9935],[0.0645,42.9919],[0.0591,42.993]]],[[[0.0541,43.0054],[0.0514,43.0081],[0.0514,43.0119],[0.0541,43.0146],[0.0579,43.0146],[0.0606,43.0119],[0.0606,43.0081],[0.0579,43.0054],[0.0541,43.0054]]]]},"properties":{"kind":"nrt"}},{"type":"Feature","geometry":{"type":"MultiPolygon","coordinates":[[[[-0.9221,42.9954],[-0.9259,42.9954],[-0.929,43.0],[-0.927,43.0066],[-0.9243,43.0093],[-0.9147,43.0097],[-0.9064,43.0039],[-0.906,42.9988],[-0.9087,42.9961],[-0.9125,42.9961],[-0.9157,43.0003],[-0.9192,43.0009],[-0.9194,42.9981],[-0.9221,42.9954]]],[[[-0.908,43.007],[-0.9115,43.0085],[-0.913,43.012],[-0.9115,43.0155],[-0.908,43.017],[-0.9045,43.0155],[-0.903,43.012],[-0.9045,43.0085],[-0.908,43.007]]]]},"properties":{"kind":"nrt"}},{"type":"Feature","geometry":{"type":"MultiPolygon","coordinates":[[[[-0.9017,42.9962],[-0.9055,42.9962],[-0.9082,42.9989],[-0.9082,43.0028],[-0.9055,43.0055],[-0.9017,43.0055],[-0.899,43.0028],[-0.899,42.9989],[-0.9017,42.9962]]],[[[-0.8924,43.0014],[-0.8962,43.0014],[-0.8989,43.0041],[-0.9019,43.0127],[-0.8988,43.0173],[-0.895,43.0173],[-0.8923,43.0146],[-0.8893,43.006],[-0.8924,43.0014]]]]},"properties":{"kind":"nrt"}}]}
